*******************************************************************************
JPL/HORIZONS                       6 Hebe                  2011-May-07 14:04:46
Rec #:     6 (+COV)   Soln.date: 2011-Mar-23_16:39:34   # obs: 5308 (1848-2011)
 
FK5/J2000.0 helio. ecliptic osc. elements (AU, DAYS, DEG, period=Julian yrs):  
 
  EPOCH=  2447026.5 ! 1987-Aug-19.00 (CT)         Residual RMS= .37744         
    EC= .2021816263744082  QR= 1.934323766853998  TP= 2447229.276910284        
    OM= 139.0725769409544  W= 238.6974744360481   IN= 14.78111308175452        
    A= 2.42451644484407    MA= 307.059885768382   ADIST= 2.914709122834142     
    PER= 3.77525           N= .261075653          ANGMOM= .02623198            
    DAN= 2.59835           DDN= 2.10436           L= 16.9075644                
    B= -12.5909864                                TP= 1988-Mar-08.7769103      
 
Physical parameters (KM, SEC, rotational period in hours):
    GM= n.a.               RAD= 92.59             ROTPER= 7.2745               
    H= 5.71                G= .240                B-V= .822                    
                           ALBEDO= .2679          STYP= S                      
 
ASTEROID comments: 
1: soln ref.= JPL#68, OCC=0
2: source=ORB
*******************************************************************************
 
 
*******************************************************************************
Ephemeris / WWW_USER Sat May  7 14:04:46 2011  Pasadena, USA     / Horizons    
*******************************************************************************
Target body name: 6 Hebe                          {source: JPL#68}
Center body name: Earth (399)                     {source: DE405}
Center-site name: GEOCENTRIC
*******************************************************************************
Start time      : A.D. 2011-Apr-18 00:00:00.0000 UT      
Stop  time      : A.D. 2020-May-18 00:00:00.0000 UT      
Step-size       : 1440 minutes
*******************************************************************************
Target pole/equ : No model available
Target radii    : 92.6 km                                                      
Center geodetic : 0.00000000,0.00000000,0.0000000 {E-lon(deg),Lat(deg),Alt(km)}
Center cylindric: 0.00000000,0.00000000,0.0000000 {E-lon(deg),Dxy(km),Dz(km)}
Center pole/equ : High-precision EOP model        {East-longitude +}
Center radii    : 6378.1 x 6378.1 x 6356.8 km     {Equator, meridian, pole}    
Target primary  : Sun                             {source: DE405}
Interfering body: MOON (Req= 1737.400) km         {source: DE405}
Deflecting body : Sun, EARTH                      {source: DE405}
Deflecting GMs  : 1.3271E+11, 3.9860E+05 km^3/s^2                              
Small perturbers: Ceres, Pallas, Vesta            {source: SB405-CPV-2}
Small body GMs  : 6.32E+01, 1.43E+01, 1.78E+01 km^3/s^2                        
Atmos refraction: NO (AIRLESS)
RA format       : HMS
Time format     : CAL 
EOP file        : eop.110506.p110728                                           
EOP coverage    : DATA-BASED 1962-JAN-20 TO 2011-MAY-06. PREDICTS-> 2011-JUL-27
Units conversion: 1 AU= 149597870.691 km, c= 299792.458 km/s, 1 day= 86400.0 s 
Table cut-offs 1: Elevation (-90.0deg=NO ),Airmass (>38.000=NO), Daylight (NO )
Table cut-offs 2: Solar Elongation (  0.0,180.0=NO )                           
*******************************************************************************
Initial FK5/J2000.0 heliocentric ecliptic osculating elements (AU, DAYS, DEG):
  EPOCH=  2447026.5 ! 1987-Aug-19.00 (CT)         Residual RMS= .37744         
    EC= .2021816263744082  QR= 1.934323766853998  TP= 2447229.276910284        
    OM= 139.0725769409544  W= 238.6974744360481   IN= 14.78111308175452        
Asteroid physical parameters (KM, SEC, rotational period in hours):
    GM= n.a.               RAD= 92.59             ROTPER= 7.2745               
    H= 5.71                G= .240                B-V= .822                    
                           ALBEDO= .2679          STYP= S                      
*************************************************************************************************
 Date__(UT)__HR:MN     R.A._(ICRF/J2000.0)_DEC R.A.__(a-apparent)__DEC  APmag  S-brt   Illu% Cnst
*************************************************************************************************
$$SOE
 2019-Jul-29 00:00     09 39 51.80 +15 55 41.6 09 40 53.91 +15 50 29.9  11.08   5.05  99.701  Leo
 2019-Jul-30 00:00     09 41 31.14 +15 49 48.1 09 42 33.19 +15 44 34.7  11.07   5.04  99.720  Leo
 2019-Jul-31 00:00     09 43 10.38 +15 43 51.7 09 44 12.38 +15 38 36.8  11.07   5.03  99.738  Leo
 2019-Aug-01 00:00     09 44 49.53 +15 37 52.7 09 45 51.47 +15 32 36.3  11.06   5.03  99.756  Leo
 2019-Aug-02 00:00     09 46 28.58 +15 31 51.0 09 47 30.47 +15 26 33.1  11.06   5.02  99.773  Leo
 2019-Aug-03 00:00     09 48 07.53 +15 25 46.8 09 49 09.35 +15 20 27.4  11.05   5.01  99.790  Leo
 2019-Aug-04 00:00     09 49 46.38 +15 19 40.1 09 50 48.13 +15 14 19.3  11.05   5.00  99.806  Leo
 2019-Aug-05 00:00     09 51 25.12 +15 13 30.9 09 52 26.81 +15 08 08.7  11.04   4.99  99.821  Leo
 2019-Aug-06 00:00     09 53 03.74 +15 07 19.3 09 54 05.37 +15 01 55.7  11.04   4.99  99.835  Leo
 2019-Aug-07 00:00     09 54 42.26 +15 01 05.4 09 55 43.82 +14 55 40.4  11.03   4.98  99.849  Leo
 2019-Aug-08 00:00     09 56 20.66 +14 54 49.2 09 57 22.16 +14 49 22.8  11.03   4.97  99.863  Leo
 2019-Aug-09 00:00     09 57 58.95 +14 48 30.8 09 59 00.39 +14 43 02.9  11.02   4.96  99.875  Leo
 2019-Aug-10 00:00     09 59 37.12 +14 42 10.2 10 00 38.50 +14 36 40.9  11.01   4.95  99.887  Leo
 2019-Aug-11 00:00     10 01 15.17 +14 35 47.5 10 02 16.50 +14 30 16.9  11.01   4.94  99.899  Leo
 2019-Aug-12 00:00     10 02 53.11 +14 29 22.7 10 03 54.38 +14 23 50.7  11.00   4.94  99.909  Leo
 2019-Aug-13 00:00     10 04 30.92 +14 22 56.0 10 05 32.14 +14 17 22.6  10.99   4.93  99.919  Leo
 2019-Aug-14 00:00     10 06 08.62 +14 16 27.2 10 07 09.78 +14 10 52.6  10.99   4.92  99.929  Leo
 2019-Aug-15 00:00     10 07 46.19 +14 09 56.6 10 08 47.30 +14 04 20.7  10.98   4.91  99.937  Leo
 2019-Aug-16 00:00     10 09 23.65 +14 03 24.1 10 10 24.70 +13 57 47.0  10.97   4.90  99.945  Leo
 2019-Aug-17 00:00     10 11 00.98 +13 56 49.8 10 12 01.97 +13 51 11.4  10.96   4.89  99.953  Leo
 2019-Aug-18 00:00     10 12 38.19 +13 50 13.7 10 13 39.12 +13 44 34.2  10.95   4.88  99.960  Leo
 2019-Aug-19 00:00     10 14 15.29 +13 43 36.0 10 15 16.15 +13 37 55.3  10.95   4.87  99.966  Leo
 2019-Aug-20 00:00     10 15 52.26 +13 36 56.5 10 16 53.06 +13 31 14.7  10.94   4.86  99.971  Leo
 2019-Aug-21 00:00     10 17 29.11 +13 30 15.5 10 18 29.85 +13 24 32.5  10.93   4.85  99.976  Leo
 2019-Aug-22 00:00     10 19 05.84 +13 23 32.9 10 20 06.52 +13 17 48.8  10.92   4.84  99.980  Leo
 2019-Aug-23 00:00     10 20 42.44 +13 16 48.9 10 21 43.08 +13 11 03.6  10.91   4.83  99.984  Leo
 2019-Aug-24 00:00     10 22 18.92 +13 10 03.3 10 23 19.51 +13 04 16.9  10.90   4.82  99.986  Leo
 2019-Aug-25 00:00     10 23 55.28 +13 03 16.4 10 24 55.82 +12 57 28.9  10.90   4.81  99.988  Leo
 2019-Aug-26 00:00     10 25 31.52 +12 56 28.2 10 26 32.00 +12 50 39.5  10.89   4.81  99.990  Leo
 2019-Aug-27 00:00     10 27 07.62 +12 49 38.7 10 28 08.07 +12 43 48.9  10.89   4.80  99.991  Leo
 2019-Aug-28 00:00     10 28 43.60 +12 42 47.9 10 29 44.00 +12 36 57.1  10.89   4.81  99.991  Leo
 2019-Aug-29 00:00     10 30 19.45 +12 35 56.0 10 31 19.80 +12 30 04.1  10.90   4.81  99.990  Leo
 2019-Aug-30 00:00     10 31 55.16 +12 29 03.0 10 32 55.47 +12 23 10.1  10.90   4.82  99.989  Leo
 2019-Aug-31 00:00     10 33 30.74 +12 22 09.0 10 34 30.99 +12 16 15.1  10.91   4.82  99.987  Leo
 2019-Sep-01 00:00     10 35 06.18 +12 15 14.0 10 36 06.38 +12 09 19.2  10.92   4.83  99.985  Leo
 2019-Sep-02 00:00     10 36 41.48 +12 08 18.1 10 37 41.63 +12 02 22.3  10.94   4.85  99.982  Leo
 2019-Sep-03 00:00     10 38 16.64 +12 01 21.4 10 39 16.73 +11 55 24.7  10.95   4.86  99.978  Leo
 2019-Sep-04 00:00     10 39 51.65 +11 54 23.9 10 40 51.69 +11 48 26.2  10.96   4.87  99.974  Leo
 2019-Sep-05 00:00     10 41 26.52 +11 47 25.7 10 42 26.51 +11 41 27.1  10.97   4.88  99.969  Leo
 2019-Sep-06 00:00     10 43 01.23 +11 40 26.8 10 44 01.19 +11 34 27.3  10.99   4.90  99.963  Leo
 2019-Sep-07 00:00     10 44 35.80 +11 33 27.4 10 45 35.72 +11 27 26.9  11.00   4.91  99.957  Leo
 2019-Sep-08 00:00     10 46 10.22 +11 26 27.4 10 47 10.10 +11 20 26.0  11.01   4.92  99.949  Leo
 2019-Sep-09 00:00     10 47 44.49 +11 19 27.0 10 48 44.33 +11 13 24.7  11.02   4.93  99.942  Leo
 2019-Sep-10 00:00     10 49 18.61 +11 12 26.1 10 50 18.41 +11 06 23.0  11.04   4.95  99.934  Leo
 2019-Sep-11 00:00     10 50 52.57 +11 05 24.9 10 51 52.33 +10 59 20.9  11.05   4.96  99.925  Leo
 2019-Sep-12 00:00     10 52 26.39 +10 58 23.3 10 53 26.11 +10 52 18.6  11.06   4.97  99.915  Leo
 2019-Sep-13 00:00     10 54 00.05 +10 51 21.5 10 54 59.73 +10 45 16.1  11.07   4.98  99.905  Leo
 2019-Sep-14 00:00     10 55 33.56 +10 44 19.5 10 56 33.20 +10 38 13.3  11.08   4.99  99.894  Leo
 2019-Sep-15 00:00     10 57 06.92 +10 37 17.4 10 58 06.51 +10 31 10.5  11.09   5.00  99.883  Leo
 2019-Sep-16 00:00     10 58 40.13 +10 30 15.2 10 59 39.68 +10 24 07.6  11.10   5.01  99.871  Leo
 2019-Sep-17 00:00     11 00 13.18 +10 23 12.9 11 01 12.69 +10 17 04.6  11.11   5.02  99.858  Leo
 2019-Sep-18 00:00     11 01 46.08 +10 16 10.7 11 02 45.55 +10 10 01.7  11.12   5.03  99.845  Leo
 2019-Sep-19 00:00     11 03 18.83 +10 09 08.5 11 04 18.26 +10 02 58.9  11.13   5.05  99.831  Leo
 2019-Sep-20 00:00     11 04 51.43 +10 02 06.5 11 05 50.82 +09 55 56.2  11.14   5.06  99.817  Leo
 2019-Sep-21 00:00     11 06 23.86 +09 55 04.7 11 07 23.23 +09 48 53.7  11.15   5.07  99.801  Leo
 2019-Sep-22 00:00     11 07 56.15 +09 48 03.1 11 08 55.48 +09 41 51.5  11.16   5.08  99.786  Leo
